{
  "type": "FeatureCollection",
  "features": [
    {
      "type": "Feature",
      "properties": {
        "norad_id": 44333,
        "name": "AT&T T-16",
        "group": "intelsat",
        "lat": 0.0024017663283077513,
        "lon": 52.01723248554268,
        "alt_km": 35787.111368636906,
        "timestamp": "2025-12-25T03:55:55.975207+00:00",
        "meta_object_name": "AT&T T-16",
        "meta_object_id": "2019-034A",
        "meta_epoch": "2025-12-23T22:55:25.672800",
        "meta_mean_motion": 1.00268558,
        "meta_eccentricity": 6.686e-05,
        "meta_inclination": 0.0228,
        "meta_ra_of_asc_node": 67.9518,
        "meta_arg_of_pericenter": 76.4171,
        "meta_mean_anomaly": 191.3588,
        "meta_ephemeris_type": 0,
        "meta_classification_type": "U",
        "meta_norad_cat_id": 44333,
        "meta_element_set_no": 999,
        "meta_rev_at_epoch": 2387,
        "meta_bstar": 0,
        "meta_mean_motion_dot": -9.4e-07,
        "meta_mean_motion_ddot": 0,
        "tle_line1": "1 44333U 19034A   25357.95515825 -.00000094  00000+0  00000+0 0  9998",
        "tle_line2": "2 44333   0.0228  67.9518 0000668  76.4171 191.3588  1.00268558 23873"
      },
      "geometry": {
        "type": "Point",
        "coordinates": [
          52.01723248554268,
          0.0024017663283077513
        ]
      }
    },
    {
      "type": "Feature",
      "properties": {
        "norad_id": 44476,
        "name": "INTELSAT 39 (IS-39)",
        "group": "intelsat",
        "lat": -0.01525789395139628,
        "lon": -145.15309514681212,
        "alt_km": 35784.97263856073,
        "timestamp": "2025-12-25T03:55:55.975219+00:00",
        "meta_object_name": "INTELSAT 39 (IS-39)",
        "meta_object_id": "2019-049B",
        "meta_epoch": "2025-12-24T20:44:19.375296",
        "meta_mean_motion": 1.00269205,
        "meta_eccentricity": 0.0001053,
        "meta_inclination": 0.0204,
        "meta_ra_of_asc_node": 14.1834,
        "meta_arg_of_pericenter": 135.0817,
        "meta_mean_anomaly": 317.3822,
        "meta_ephemeris_type": 0,
        "meta_classification_type": "U",
        "meta_norad_cat_id": 44476,
        "meta_element_set_no": 999,
        "meta_rev_at_epoch": 2338,
        "meta_bstar": 0,
        "meta_mean_motion_dot": 0,
        "meta_mean_motion_ddot": 0,
        "tle_line1": "1 44476U 19049B   25358.86411314  .00000000  00000+0  00000+0 0  9997",
        "tle_line2": "2 44476   0.0204  14.1834 0001053 135.0817 317.3822  1.00269205 23385"
      },
      "geometry": {
        "type": "Point",
        "coordinates": [
          -145.15309514681212,
          -0.01525789395139628
        ]
      }
    },
    {
      "type": "Feature",
      "properties": {
        "norad_id": 46114,
        "name": "GALAXY 30 (G-30)",
        "group": "intelsat",
        "lat": 0.02024677263562859,
        "lon": 27.923621828401714,
        "alt_km": 35790.12562331508,
        "timestamp": "2025-12-25T03:55:55.975231+00:00",
        "meta_object_name": "GALAXY 30 (G-30)",
        "meta_object_id": "2020-056C",
        "meta_epoch": "2025-12-24T14:13:04.643040",
        "meta_mean_motion": 1.00271053,
        "meta_eccentricity": 0.0002137,
        "meta_inclination": 0.0158,
        "meta_ra_of_asc_node": 331.484,
        "meta_arg_of_pericenter": 301.012,
        "meta_mean_anomaly": 269.1362,
        "meta_ephemeris_type": 0,
        "meta_classification_type": "U",
        "meta_norad_cat_id": 46114,
        "meta_element_set_no": 999,
        "meta_rev_at_epoch": 1954,
        "meta_bstar": 0,
        "meta_mean_motion_dot": 5.8e-07,
        "meta_mean_motion_ddot": 0,
        "tle_line1": "1 46114U 20056C   25358.59241485  .00000058  00000+0  00000+0 0  9991",
        "tle_line2": "2 46114   0.0158 331.4840 0002137 301.0120 269.1362  1.00271053 19542"
      },
      "geometry": {
        "type": "Point",
        "coordinates": [
          27.923621828401714,
          0.02024677263562859
        ]
      }
    },
    {
      "type": "Feature",
      "properties": {
        "norad_id": 54026,
        "name": "GALAXY 33 (G-33)",
        "group": "intelsat",
        "lat": 0.01380819243543281,
        "lon": 19.9297322062295,
        "alt_km": 35788.768685929266,
        "timestamp": "2025-12-25T03:55:55.975243+00:00",
        "meta_object_name": "GALAXY 33 (G-33)",
        "meta_object_id": "2022-128A",
        "meta_epoch": "2025-12-24T04:31:51.326400",
        "meta_mean_motion": 1.00272122,
        "meta_eccentricity": 0.0001643,
        "meta_inclination": 0.0126,
        "meta_ra_of_asc_node": 315.9231,
        "meta_arg_of_pericenter": 309.5058,
        "meta_mean_anomaly": 122.5078,
        "meta_ephemeris_type": 0,
        "meta_classification_type": "U",
        "meta_norad_cat_id": 54026,
        "meta_element_set_no": 999,
        "meta_rev_at_epoch": 1198,
        "meta_bstar": 0,
        "meta_mean_motion_dot": 1e-06,
        "meta_mean_motion_ddot": 0,
        "tle_line1": "1 54026U 22128A   25358.18878850  .00000100  00000+0  00000+0 0  9999",
        "tle_line2": "2 54026   0.0126 315.9231 0001643 309.5058 122.5078  1.00272122 11987"
      },
      "geometry": {
        "type": "Point",
        "coordinates": [
          19.9297322062295,
          0.01380819243543281
        ]
      }
    },
    {
      "type": "Feature",
      "properties": {
        "norad_id": 54027,
        "name": "GALAXY 34 (G-34)",
        "group": "intelsat",
        "lat": 0.015921350335087143,
        "lon": 23.96145038048713,
        "alt_km": 35790.10407856223,
        "timestamp": "2025-12-25T03:55:55.975255+00:00",
        "meta_object_name": "GALAXY 34 (G-34)",
        "meta_object_id": "2022-128B",
        "meta_epoch": "2025-12-24T13:27:04.950144",
        "meta_mean_motion": 1.00269797,
        "meta_eccentricity": 0.0001744,
        "meta_inclination": 0.0224,
        "meta_ra_of_asc_node": 357.4112,
        "meta_arg_of_pericenter": 268.0239,
        "meta_mean_anomaly": 260.7121,
        "meta_ephemeris_type": 0,
        "meta_classification_type": "U",
        "meta_norad_cat_id": 54027,
        "meta_element_set_no": 999,
        "meta_rev_at_epoch": 1216,
        "meta_bstar": 0,
        "meta_mean_motion_dot": 0,
        "meta_mean_motion_ddot": 0,
        "tle_line1": "1 54027U 22128B   25358.56047396  .00000000  00000+0  00000+0 0  9994",
        "tle_line2": "2 54027   0.0224 357.4112 0001744 268.0239 260.7121  1.00269797 12167"
      },
      "geometry": {
        "type": "Point",
        "coordinates": [
          23.96145038048713,
          0.015921350335087143
        ]
      }
    },
    {
      "type": "Feature",
      "properties": {
        "norad_id": 54243,
        "name": "GALAXY 31 (G-31)",
        "group": "intelsat",
        "lat": 0.00980743654783411,
        "lon": 31.916067616916187,
        "alt_km": 35788.22732195195,
        "timestamp": "2025-12-25T03:55:55.975267+00:00",
        "meta_object_name": "GALAXY 31 (G-31)",
        "meta_object_id": "2022-153A",
        "meta_epoch": "2025-12-24T14:14:12.035040",
        "meta_mean_motion": 1.00271389,
        "meta_eccentricity": 0.0001524,
        "meta_inclination": 0.025,
        "meta_ra_of_asc_node": 248.306,
        "meta_arg_of_pericenter": 34.989,
        "meta_mean_anomaly": 262.6161,
        "meta_ephemeris_type": 0,
        "meta_classification_type": "U",
        "meta_norad_cat_id": 54243,
        "meta_element_set_no": 999,
        "meta_rev_at_epoch": 538,
        "meta_bstar": 0,
        "meta_mean_motion_dot": 3.4e-07,
        "meta_mean_motion_ddot": 0,
        "tle_line1": "1 54243U 22153A   25358.59319485  .00000034  00000+0  00000+0 0  9993",
        "tle_line2": "2 54243   0.0250 248.3060 0001524  34.9890 262.6161  1.00271389  5386"
      },
      "geometry": {
        "type": "Point",
        "coordinates": [
          31.916067616916187,
          0.00980743654783411
        ]
      }
    },
    {
      "type": "Feature",
      "properties": {
        "norad_id": 54244,
        "name": "GALAXY 32 (G-32)",
        "group": "intelsat",
        "lat": 0.02319741736706189,
        "lon": 61.9258893484499,
        "alt_km": 35788.139408280775,
        "timestamp": "2025-12-25T03:55:55.975279+00:00",
        "meta_object_name": "GALAXY 32 (G-32)",
        "meta_object_id": "2022-153B",
        "meta_epoch": "2025-12-24T00:35:10.537728",
        "meta_mean_motion": 1.00272312,
        "meta_eccentricity": 0.00019036,
        "meta_inclination": 0.0096,
        "meta_ra_of_asc_node": 16.5696,
        "meta_arg_of_pericenter": 300.0291,
        "meta_mean_anomaly": 53.9983,
        "meta_ephemeris_type": 0,
        "meta_classification_type": "U",
        "meta_norad_cat_id": 54244,
        "meta_element_set_no": 999,
        "meta_rev_at_epoch": 1138,
        "meta_bstar": 0,
        "meta_mean_motion_dot": -1.53e-06,
        "meta_mean_motion_ddot": 0,
        "tle_line1": "1 54244U 22153B   25358.02442752 -.00000153  00000+0  00000+0 0  9999",
        "tle_line2": "2 54244   0.0096  16.5696 0001903 300.0291  53.9983  1.00272312 11385"
      },
      "geometry": {
        "type": "Point",
        "coordinates": [
          61.9258893484499,
          0.02319741736706189
        ]
      }
    }
  ]
}